[{"OBJECT_NAME":"BUFENG 1B","OBJECT_ID":"2019-032B","EPOCH":"2026-03-09T19:57:27.457920","MEAN_MOTION":15.25619535,"ECCENTRICITY":0.00242037,"INCLINATION":44.9701,"RA_OF_ASC_NODE":192.0248,"ARG_OF_PERICENTER":123.8847,"MEAN_ANOMALY":236.4342,"EPHEMERIS_TYPE":0,"CLASSIFICATION_TYPE":"U","NORAD_CAT_ID":44311,"ELEMENT_SET_NO":999,"REV_AT_EPOCH":37256,"BSTAR":0.00059375374,"MEAN_MOTION_DOT":0.00015236,"MEAN_MOTION_DDOT":0},{"OBJECT_NAME":"STARLINK-32884","OBJECT_ID":"2025-029F","EPOCH":"2026-03-09T17:11:44.196000","MEAN_MOTION":15.30190916,"ECCENTRICITY":8.806e-5,"INCLINATION":53.1596,"RA_OF_ASC_NODE":230.0652,"ARG_OF_PERICENTER":57.7722,"MEAN_ANOMALY":302.3364,"EPHEMERIS_TYPE":0,"CLASSIFICATION_TYPE":"U","NORAD_CAT_ID":62953,"ELEMENT_SET_NO":999,"REV_AT_EPOCH":6136,"BSTAR":0.00018927965,"MEAN_MOTION_DOT":5.249e-5,"MEAN_MOTION_DDOT":0}]
